{"fetched_at":"2026-07-12T05:53:17.290Z","source":"https://celestrak.org/NORAD/elements/gp.php?NAME=SPOT&FORMAT=JSON","constellation":"spot","records":[{"OBJECT_NAME":"SPOT 6","OBJECT_ID":"2012-047A","EPOCH":"2026-07-11T19:49:30.301824","CLASSIFICATION_TYPE":"U","MEAN_MOTION":14.58537207,"ECCENTRICITY":0.0001145,"INCLINATION":98.2113,"RA_OF_ASC_NODE":259.8451,"ARG_OF_PERICENTER":82.4126,"MEAN_ANOMALY":277.7203,"EPHEMERIS_TYPE":0,"NORAD_CAT_ID":38755,"ELEMENT_SET_NO":999,"REV_AT_EPOCH":73664,"BSTAR":0.0000071562,"MEAN_MOTION_DOT":-1.3e-7,"MEAN_MOTION_DDOT":0},{"OBJECT_NAME":"SPOT 7","OBJECT_ID":"2014-034A","EPOCH":"2026-07-11T20:05:55.724928","CLASSIFICATION_TYPE":"U","MEAN_MOTION":14.60978942,"ECCENTRICITY":0.0001549,"INCLINATION":98.0623,"RA_OF_ASC_NODE":254.6925,"ARG_OF_PERICENTER":96.5128,"MEAN_ANOMALY":263.6249,"EPHEMERIS_TYPE":0,"NORAD_CAT_ID":40053,"ELEMENT_SET_NO":999,"REV_AT_EPOCH":64073,"BSTAR":0.000042585,"MEAN_MOTION_DOT":0.00000163,"MEAN_MOTION_DDOT":0}]}
